STARLINK-1301
1 15361C 20019B   21326.15971259 -.00001281  00000-0 -85839-4 0  3269
2 15361  53.0548 348.0249 0001395  54.0172 339.8805 15.06400356    10
